ONEWEB-0667             
1 55827U 23029AH  26188.70923887  .00000038  00000+0  61239-4 0  9997
2 55827  87.9197 270.3423 0001931 102.0461 258.0889 13.20773012163858
ONEWEB-0669             
1 55828U 23029AJ  26188.70418147  .00000029  00000+0  40082-4 0  9999
2 55828  87.9186 270.3527 0001825  84.4963 275.6378 13.20773293163853
ONEWEB-0670             
1 55829U 23029AK  26188.76409125 -.00000208  00000+0 -59591-3 0  9997
2 55829  87.8961 285.6393 0001597 102.6040 257.5268 13.14501280162134
ONEWEB-0671             
1 55830U 23029AL  26188.68567270 -.00000080  00000+0 -23095-3 0  9994
2 55830  87.9186 300.8931 0001862 104.0050 256.1290 13.19725371161601
ONEWEB-0672             
1 55831U 23029AM  26188.77488534  .00000069  00000+0  13823-3 0  9993
2 55831  87.9190 270.3323 0002168  92.4651 267.6730 13.20769709163861
ONEWEB-0673             
1 55832U 23029AN  26188.73857999  .00000055  00000+0  10579-3 0  9995
2 55832  87.9192 300.8756 0001864 102.7125 257.4216 13.19724636161611
ONEWEB-0674             
1 55833U 23029AP  26188.73236683  .00000135  00000+0  32982-3 0  9998
2 55833  87.8960 285.6217 0001551  97.9529 262.1777 13.14501148162119
ONEWEB-0675             
1 55834U 23029AQ  26188.75358617 -.00000010  00000+0 -56582-4 0  9990
2 55834  87.9185 300.8811 0002257  99.1858 260.9531 13.19723668161631
ONEWEB-0720             
1 55835U 23029AR  26188.74569707  .00000069  00000+0  13941-3 0  9997
2 55835  87.9189 300.8822 0001988 109.5799 250.5549 13.19725955161554
ONEWEB-0537             
1 56046U 23043A   26188.02980640  .00000086  00000+0  19060-3 0  9999
2 56046  87.9082 224.8303 0002247  90.8981 269.2408 13.16593875161578
ONEWEB-0538             
1 56047U 23043B   26188.09946766  .00000071  00000+0  15190-3 0  9992
2 56047  87.9082 224.8191 0002312  97.5443 262.5950 13.16593871161590
ONEWEB-0546             
1 56048U 23043C   26188.08680139  .00000058  00000+0  11890-3 0  9999
2 56048  87.9081 224.8218 0002501  81.6421 278.4994 13.16593455161581
ONEWEB-0547             
1 56049U 23043D   26188.68615227 -.00000002  00000+0 -35424-4 0  9993
2 56049  87.9243 239.8955 0002161 101.0188 259.1189 13.21826515160937
ONEWEB-0548             
1 56050U 23043E   26188.03533994  .00000059  00000+0  12109-3 0  9998
2 56050  87.9081 224.8276 0001673  87.8938 272.2385 13.16594406161570
ONEWEB-0549             
1 56051U 23043F   26188.68026968 -.00000062  00000+0 -18275-3 0  9994
2 56051  87.9237 239.9021 0002444 101.0505 259.0904 13.21826465160933
ONEWEB-0550             
1 56052U 23043G   26188.66682220 -.00000012  00000+0 -59969-4 0  9993
2 56052  87.9239 239.9031 0001854  97.4291 262.7054 13.21826283160936
ONEWEB-0551             
1 56053U 23043H   26188.69071032  .00000047  00000+0  89845-4 0  9992
2 56053  87.8986 255.1416 0002319 105.1712 254.9675 13.15547266159095
ONEWEB-0552             
1 56054U 23043J   26188.66175685  .00000023  00000+0  25349-4 0  9992
2 56054  87.9233 239.9092 0001983 101.8621 258.2736 13.21825649160931
ONEWEB-0553             
1 56055U 23043K   26188.09313397  .00000104  00000+0  23818-3 0  9992
2 56055  87.9081 224.8207 0002172  84.7545 275.3834 13.16593293161592
ONEWEB-0554             
1 56056U 23043L   26188.08047179  .00000052  00000+0  10237-3 0  9997
2 56056  87.9077 224.8319 0001598  88.0640 272.0674 13.16593597161577
ONEWEB-0555             
1 56057U 23043M   26187.58648242  .00000002  00000+0 -27912-4 0  9995
2 56057  87.9082 224.9190 0002410  82.0159 278.1245 13.16593600161515
ONEWEB-0557             
1 56058U 23043N   26187.60073246 -.00000039  00000+0 -13623-3 0  9999
2 56058  87.9082 224.9260 0001784  56.9208 303.2094 13.16593653161512
ONEWEB-0558             
1 56059U 23043P   26187.67097946 -.00000074  00000+0 -21025-3 0  9994
2 56059  87.9239 240.1014 0002403 100.0360 260.1045 13.21825639160810
ONEWEB-0559             
1 56060U 23043Q   26188.11337301 -.00000188  00000+0 -48661-3 0  9999
2 56060  87.9242 240.0089 0002173 102.9406 257.1970 13.21825019160885
ONEWEB-0566             
1 56061U 23043R   26188.10664506 -.00000199  00000+0 -51432-3 0  9991
2 56061  87.9241 240.0081 0002207 105.6019 254.5359 13.21824893160864
ONEWEB-0568             
1 56062U 23043S   26188.07414284  .00000030  00000+0  43564-4 0  9994
2 56062  87.9079 224.8212 0002224  88.2423 271.8963 13.16595085161590
ONEWEB-0574             
1 56063U 23043T   26188.70551270  .00000065  00000+0  12672-3 0  9995
2 56063  87.9241 239.8935 0001940  92.3620 267.7736 13.21825577160981
ONEWEB-0575             
1 56064U 23043U   26188.06780261  .00000025  00000+0  30606-4 0  9993
2 56064  87.9080 224.8188 0001885  82.9865 277.1481 13.16594606161580
ONEWEB-0576             
1 56065U 23043V   26187.59281544 -.00000051  00000+0 -16685-3 0  9992
2 56065  87.9083 224.9217 0001978  88.8369 271.2989 13.16595083161516
ONEWEB-0577             
1 56066U 23043W   26187.59915821 -.00000016  00000+0 -75667-4 0  9992
2 56066  87.9082 224.9179 0001568  75.3658 284.7646 13.16595336161543
