OBJECT_NAME,OBJECT_ID,EPOCH,MEAN_MOTION,ECCENTRICITY,INCLINATION,RA_OF_ASC_NODE,ARG_OF_PERICENTER,MEAN_ANOMALY,EPHEMERIS_TYPE,CLASSIFICATION_TYPE,NORAD_CAT_ID,ELEMENT_SET_NO,REV_AT_EPOCH,BSTAR,MEAN_MOTION_DOT,MEAN_MOTION_DDOT
ONEWEB-0667,2023-029AH,2026-07-07T17:01:18.238368,13.20773012,.0001931,87.9197,270.3423,102.0461,258.0889,0,U,55827,999,16385,.61239E-4,.38E-6,0
ONEWEB-0669,2023-029AJ,2026-07-07T16:54:01.279008,13.20773293,.0001825,87.9186,270.3527,84.4963,275.6378,0,U,55828,999,16385,.40082E-4,.29E-6,0
ONEWEB-0670,2023-029AK,2026-07-07T18:20:17.484000,13.14501280,.0001597,87.8961,285.6393,102.6040,257.5268,0,U,55829,999,16213,-.59591E-3,-.208E-5,0
ONEWEB-0671,2023-029AL,2026-07-07T16:27:22.121280,13.19725371,.0001862,87.9186,300.8931,104.0050,256.1290,0,U,55830,999,16160,-.23095E-3,-.8E-6,0
ONEWEB-0672,2023-029AM,2026-07-07T18:35:50.093376,13.20769709,.0002168,87.9190,270.3323,92.4651,267.6730,0,U,55831,999,16386,.13823E-3,.69E-6,0
ONEWEB-0673,2023-029AN,2026-07-07T17:43:33.311136,13.19724636,.0001864,87.9192,300.8756,102.7125,257.4216,0,U,55832,999,16161,.10579E-3,.55E-6,0
ONEWEB-0674,2023-029AP,2026-07-07T17:34:36.494112,13.14501148,.0001551,87.8960,285.6217,97.9529,262.1777,0,U,55833,999,16211,.32982E-3,.135E-5,0
ONEWEB-0675,2023-029AQ,2026-07-07T18:05:09.845088,13.19723668,.0002257,87.9185,300.8811,99.1858,260.9531,0,U,55834,999,16163,-.56582E-4,-.1E-6,0
ONEWEB-0720,2023-029AR,2026-07-07T17:53:48.226848,13.19725955,.0001988,87.9189,300.8822,109.5799,250.5549,0,U,55835,999,16155,.13941E-3,.69E-6,0
ONEWEB-0537,2023-043A,2026-07-07T00:42:55.272960,13.16593875,.00022471,87.9082,224.8303,90.8981,269.2408,0,U,56046,999,16157,.19060059E-3,.86E-6,0
ONEWEB-0538,2023-043B,2026-07-07T02:23:14.005824,13.16593871,.00023121,87.9082,224.8191,97.5443,262.5950,0,U,56047,999,16159,.15189774E-3,.71E-6,0
ONEWEB-0546,2023-043C,2026-07-07T02:04:59.640096,13.16593455,.00025011,87.9081,224.8218,81.6421,278.4994,0,U,56048,999,16158,.11890131E-3,.58E-6,0
ONEWEB-0547,2023-043D,2026-07-07T16:28:03.556128,13.21826515,.0002161,87.9243,239.8955,101.0188,259.1189,0,U,56049,999,16093,-.35424E-4,-.2E-7,0
ONEWEB-0548,2023-043E,2026-07-07T00:50:53.370816,13.16594406,.00016732,87.9081,224.8276,87.8938,272.2385,0,U,56050,999,16157,.12108714E-3,.59E-6,0
ONEWEB-0549,2023-043F,2026-07-07T16:19:35.300352,13.21826465,.0002444,87.9237,239.9021,101.0505,259.0904,0,U,56051,999,16093,-.18275E-3,-.62E-6,0
ONEWEB-0550,2023-043G,2026-07-07T16:00:13.438080,13.21826283,.0001854,87.9239,239.9031,97.4291,262.7054,0,U,56052,999,16093,-.59969E-4,-.12E-6,0
ONEWEB-0551,2023-043H,2026-07-07T16:34:37.371648,13.15547266,.0002319,87.8986,255.1416,105.1712,254.9675,0,U,56053,999,15909,.89845E-4,.47E-6,0
ONEWEB-0552,2023-043J,2026-07-07T15:52:55.791840,13.21825649,.0001983,87.9233,239.9092,101.8621,258.2736,0,U,56054,999,16093,.25349E-4,.23E-6,0
ONEWEB-0553,2023-043K,2026-07-07T02:14:06.775008,13.16593293,.00021729,87.9081,224.8207,84.7545,275.3834,0,U,56055,999,16159,.23818277E-3,.104E-5,0
ONEWEB-0554,2023-043L,2026-07-07T01:55:52.762656,13.16593597,.00015989,87.9077,224.8319,88.0640,272.0674,0,U,56056,999,16157,.10236828E-3,.52E-6,0
ONEWEB-0555,2023-043M,2026-07-06T14:04:32.081088,13.16593600,.000241,87.9082,224.9190,82.0159,278.1245,0,U,56057,999,16151,-.27911887E-4,.2E-7,0
ONEWEB-0557,2023-043N,2026-07-06T14:25:03.284544,13.16593653,.00017849,87.9082,224.9260,56.9208,303.2094,0,U,56058,999,16151,-.13623084E-3,-.39E-6,0
ONEWEB-0558,2023-043P,2026-07-06T16:06:12.625344,13.21825639,.00024037,87.9239,240.1014,100.0360,260.1045,0,U,56059,999,16081,-.21025437E-3,-.74E-6,0
ONEWEB-0559,2023-043Q,2026-07-07T02:43:15.428064,13.21825019,.00021734,87.9242,240.0089,102.9406,257.1970,0,U,56060,999,16088,-.48660714E-3,-.188E-5,0
ONEWEB-0566,2023-043R,2026-07-07T02:33:34.133184,13.21824893,.00022071,87.9241,240.0081,105.6019,254.5359,0,U,56061,999,16086,-.51432246E-3,-.199E-5,0
ONEWEB-0568,2023-043S,2026-07-07T01:46:45.941376,13.16595085,.00022248,87.9079,224.8212,88.2423,271.8963,0,U,56062,999,16159,.43563683E-4,.3E-6,0
ONEWEB-0574,2023-043T,2026-07-07T16:55:56.297280,13.21825577,.000194,87.9241,239.8935,92.3620,267.7736,0,U,56063,999,16098,.12672E-3,.65E-6,0
ONEWEB-0575,2023-043U,2026-07-07T01:37:38.145504,13.16594606,.00018855,87.9080,224.8188,82.9865,277.1481,0,U,56064,999,16158,.30606254E-4,.25E-6,0
ONEWEB-0576,2023-043V,2026-07-06T14:13:39.254016,13.16595083,.00019786,87.9083,224.9217,88.8369,271.2989,0,U,56065,999,16151,-.16685235E-3,-.51E-6,0
ONEWEB-0577,2023-043W,2026-07-06T14:22:47.269344,13.16595336,.00015687,87.9082,224.9179,75.3658,284.7646,0,U,56066,999,16154,-.75667315E-4,-.16E-6,0
